{
  "norad_id": 55834,
  "name": "ONEWEB-0675",
  "history": [
    {
      "epoch": "2026-03-28T22:00:51.024672Z",
      "apogee_km": 1187.1174600234672,
      "perigee_km": 1184.4154824254765,
      "latitude_deg": -2.2762159454370108e-05,
      "longitude_deg": 164.4376704635289,
      "height_km": 1188.2684388068917,
      "semi_major_axis_km": 7563.903471224471,
      "eccentricity": 0.00017861,
      "inclination_deg": 87.92,
      "raan_deg": 320.9811,
      "arg_perigee_deg": 72.922,
      "mean_anomaly_deg": 287.2108,
      "mean_motion_rev_day": 13.19726068
    },
    {
      "epoch": "2026-03-29T03:28:22.753056Z",
      "apogee_km": 1187.1123568742178,
      "perigee_km": 1184.4196074125748,
      "latitude_deg": -3.5359993251160334e-06,
      "longitude_deg": 82.28598409763012,
      "height_km": 1188.2796398687615,
      "semi_major_axis_km": 7563.902982143396,
      "eccentricity": 0.000178,
      "inclination_deg": 87.9198,
      "raan_deg": 320.9358,
      "arg_perigee_deg": 73.3815,
      "mean_anomaly_deg": 286.7513,
      "mean_motion_rev_day": 13.19726196
    },
    {
      "epoch": "2026-03-30T01:18:29.635488Z",
      "apogee_km": 1187.0901893053497,
      "perigee_km": 1184.4458481108104,
      "latitude_deg": -3.332187911527369e-05,
      "longitude_deg": 113.67946506594103,
      "height_km": 1188.2844743006083,
      "semi_major_axis_km": 7563.90501870808,
      "eccentricity": 0.0001748,
      "inclination_deg": 87.9196,
      "raan_deg": 320.7547,
      "arg_perigee_deg": 73.1922,
      "mean_anomaly_deg": 286.9402,
      "mean_motion_rev_day": 13.19725663
    },
    {
      "epoch": "2026-03-30T04:56:50.733600Z",
      "apogee_km": 1187.0839564015132,
      "perigee_km": 1184.448389979848,
      "latitude_deg": 3.619484365177085e-05,
      "longitude_deg": 58.911902570108,
      "height_km": 1188.2826866577086,
      "semi_major_axis_km": 7563.903173190681,
      "eccentricity": 0.00017422,
      "inclination_deg": 87.9195,
      "raan_deg": 320.7245,
      "arg_perigee_deg": 73.1372,
      "mean_anomaly_deg": 286.9952,
      "mean_motion_rev_day": 13.19726146
    },
    {
      "epoch": "2026-03-30T08:35:11.810976Z",
      "apogee_km": 1187.0792468088002,
      "perigee_km": 1184.4485220811903,
      "latitude_deg": 6.963404982335591e-05,
      "longitude_deg": 4.144425407041931,
      "height_km": 1188.2814872017225,
      "semi_major_axis_km": 7563.9008844449945,
      "eccentricity": 0.0001739,
      "inclination_deg": 87.9194,
      "raan_deg": 320.6943,
      "arg_perigee_deg": 73.1548,
      "mean_anomaly_deg": 286.9776,
      "mean_motion_rev_day": 13.19726745
    },
    {
      "epoch": "2026-03-30T21:19:25.881600Z",
      "apogee_km": 1187.076389252822,
      "perigee_km": 1184.4589756765017,
      "latitude_deg": -3.272569219601986e-05,
      "longitude_deg": 172.45709478571433,
      "height_km": 1188.2868839868415,
      "semi_major_axis_km": 7563.904682464661,
      "eccentricity": 0.00017302,
      "inclination_deg": 87.9193,
      "raan_deg": 320.5887,
      "arg_perigee_deg": 73.1384,
      "mean_anomaly_deg": 286.9938,
      "mean_motion_rev_day": 13.19725751
    },
    {
      "epoch": "2026-03-31T13:42:00.906912Z",
      "apogee_km": 1187.0761374609983,
      "perigee_km": 1184.452976401054,
      "latitude_deg": -1.013209657973315e-05,
      "longitude_deg": -73.99729694960439,
      "height_km": 1188.2907631261785,
      "semi_major_axis_km": 7563.901556931026,
      "eccentricity": 0.0001734,
      "inclination_deg": 87.9191,
      "raan_deg": 320.4528,
      "arg_perigee_deg": 73.4965,
      "mean_anomaly_deg": 286.6358,
      "mean_motion_rev_day": 13.19726569
    }
  ]
}